OBJECT_NAME,OBJECT_ID,EPOCH,MEAN_MOTION,ECCENTRICITY,INCLINATION,RA_OF_ASC_NODE,ARG_OF_PERICENTER,MEAN_ANOMALY,EPHEMERIS_TYPE,CLASSIFICATION_TYPE,NORAD_CAT_ID,ELEMENT_SET_NO,REV_AT_EPOCH,BSTAR,MEAN_MOTION_DOT,MEAN_MOTION_DDOT
EYESAT A (AO-27),1993-061C,2026-06-05T01:01:44.685120,14.30939060,.0009287,98.6882,223.4603,131.4595,228.7387,0,U,22825,999,70526,.67637E-4,.133E-5,0
ITAMSAT (IO-26),1993-061D,2026-06-05T00:37:18.795072,14.31365437,.0009998,98.6830,223.3597,116.6870,243.5338,0,U,22826,999,70557,.63354E-4,.123E-5,0
RADIO ROSTO (RS15),1994-085A,2026-06-05T01:18:08.565120,11.27583599,.0155575,64.8185,322.8388,6.1185,354.1593,0,U,23439,999,29453,-.15112E-3,-.48E-6,0
JAS-2 (FO-29),1996-046B,2026-06-05T00:54:32.184000,13.53273637,.0350681,98.5250,6.5738,127.8798,235.4612,0,U,24278,999,47152,.52727E-5,-.27E-6,0
FORTE,1997-047A,2026-06-04T23:25:51.252960,14.27940255,.0024437,69.9543,41.6026,292.1329,67.7199,0,U,24920,999,49694,.10374E-3,.2E-5,0
TECHSAT 1B (GO-32),1998-043D,2026-06-04T23:34:55.337088,14.24426023,.0000374,99.0064,148.4335,204.4139,155.7022,0,U,25397,999,44959,.54311E-4,.79E-6,0
ISS (ZARYA),1998-067A,2026-06-04T17:47:31.539264,15.49603626,.00070311,51.6329,1.7083,132.5880,227.5703,0,U,25544,999,56982,.15298287E-3,.8168E-4,0
IMAGE,2000-017A,2026-06-01T06:23:33.544608,1.68666062,.74437368,94.2162,315.1599,289.6105,8.6041,0,U,26113,999,16123,-.18882371E-1,-.99E-6,0
CLUSTER II-FM7 (SAMBA),2000-041A,2026-06-05T23:36:57.501504,0.44829937,.90409651,149.8917,48.5803,265.6480,0.0292,0,U,26410,999,2025,0,.4453E-4,0
CLUSTER II-FM8 (TANGO),2000-045B,2026-06-03T22:20:35.712960,0.44411373,.90429738,150.1347,49.2777,266.1813,3.2525,0,U,26464,999,2025,0,.9075E-4,0
ODIN,2001-007A,2026-06-05T01:51:31.380192,15.71871760,.0006301,97.3851,196.2749,158.1180,202.0353,0,U,26702,999,38749,.10497E-2,.138173E-2,0
OMNI-M1,2001-026A,2026-06-04T11:43:19.690176,3.92401566,.00144614,44.8346,248.1915,51.8408,308.3413,0,U,26857,999,20507,0,-.1E-6,0
PCSAT (NO-44),2001-043C,2026-06-05T01:49:30.346752,14.31951716,.0006111,67.0513,275.5959,264.1376,95.9029,0,U,26931,999,28871,.92638E-4,.165E-5,0
PROBA-1,2001-049B,2026-06-05T04:31:37.448832,15.07438864,.0055429,97.9596,164.3030,161.8491,198.4731,0,U,26958,999,34181,.66004E-4,.963E-5,0
SAUDISAT 1C (SO-50),2002-058C,2026-06-04T09:51:04.686624,14.83018633,.00755045,64.5504,168.5155,264.8060,94.4426,0,U,27607,999,26256,.15984186E-3,.1212E-4,0
CORIOLIS,2003-001A,2026-06-05T00:09:40.201920,14.19941498,.001288,98.7126,163.0774,246.2431,113.7395,0,U,27640,999,21249,.73683E-4,.113E-5,0
CUTE-1 (CO-55),2003-031E,2026-06-03T13:11:18.293856,14.24327019,.00086909,98.6736,163.2800,219.4250,140.6297,0,U,27844,999,18973,.16425086E-3,.336E-5,0
CUBESAT XI-IV (CO-57),2003-031J,2026-06-05T00:10:13.046016,14.23614257,.0008401,98.6767,164.4416,235.3371,124.7016,0,U,27848,999,18964,.14351E-3,.283E-5,0
MOZHAETS 4 (RS22),2003-042A,2026-06-05T04:44:35.162880,14.73444843,.0010365,98.3466,340.2178,312.3674,136.7442,0,U,27939,999,21378,.14049E-3,.858E-5,0
